[{"OBJECT_NAME":"STARLINK-3088","OBJECT_ID":"2021-082AK","EPOCH":"2026-03-09T21:56:53.146464","MEAN_MOTION":14.97522709,"ECCENTRICITY":0.00022372,"INCLINATION":69.9979,"RA_OF_ASC_NODE":274.6741,"ARG_OF_PERICENTER":269.4701,"MEAN_ANOMALY":90.6201,"EPHEMERIS_TYPE":0,"CLASSIFICATION_TYPE":"U","NORAD_CAT_ID":49163,"ELEMENT_SET_NO":999,"REV_AT_EPOCH":24764,"BSTAR":3.6026631e-5,"MEAN_MOTION_DOT":3.29e-6,"MEAN_MOTION_DDOT":0},{"OBJECT_NAME":"KORSAT-7","OBJECT_ID":"2023-185B","EPOCH":"2026-03-09T23:44:55.136256","MEAN_MOTION":15.00898391,"ECCENTRICITY":0.00224341,"INCLINATION":97.6243,"RA_OF_ASC_NODE":135.089,"ARG_OF_PERICENTER":307.6562,"MEAN_ANOMALY":52.2627,"EPHEMERIS_TYPE":0,"CLASSIFICATION_TYPE":"U","NORAD_CAT_ID":58463,"ELEMENT_SET_NO":999,"REV_AT_EPOCH":12440,"BSTAR":0.00023536002,"MEAN_MOTION_DOT":2.951e-5,"MEAN_MOTION_DDOT":0}]
